ONEWEB-0387             
1 49313U 21090AL  24094.67803558  .00000028  00000+0  36373-4 0  9998
2 49313  87.9152  74.5910 0002328  88.3791 271.7609 13.20771035123626
ONEWEB-0388             
1 49314U 21090AM  24094.76421057  .00000009  00000+0 -98718-5 0  9991
2 49314  87.9099 105.0903 0001982  85.1816 274.9543 13.19723264120311
ONEWEB-0389             
1 50469U 21132A   24094.73104629 -.00000003  00000+0 -40016-4 0  9993
2 50469  87.9238 165.9324 0002552 102.8641 257.2776 13.17648452112145
ONEWEB-0390             
1 50470U 21132B   24094.88450039  .00000073  00000+0  15580-3 0  9992
2 50470  87.9237 165.9100 0002269 110.8013 249.3362 13.17649664112166
ONEWEB-0391             
1 50471U 21132C   24094.88608301  .00000050  00000+0  95357-4 0  9996
2 50471  87.9246 165.8866 0002503  97.6936 262.4480 13.17649567112161
ONEWEB-0392             
1 50472U 21132D   24094.91615048  .00000017  00000+0  10227-4 0  9993
2 50472  87.9232 165.8921 0002458 102.7318 257.4089 13.17652802112200
ONEWEB-0393             
1 50473U 21132E   24094.88937801  .00000071  00000+0  15037-3 0  9997
2 50473  87.9242 165.8658 0002427 101.5236 258.6168 13.17649062112194
ONEWEB-0394             
1 50474U 21132F   24094.80694945  .00000081  00000+0  17342-3 0  9991
2 50474  87.9152 135.5797 0002132  94.5563 265.5813 13.18685573115588
ONEWEB-0395             
1 50475U 21132G   24094.77056588  .00000475  00000+0  13050-2 0  9991
2 50475  87.9033 181.0683 0002305 105.9442 254.1940 13.11418304110288
ONEWEB-0396             
1 50476U 21132H   24094.87650574  .00000095  00000+0  20932-3 0  9994
2 50476  87.9156 135.5603 0002171  92.2528 267.8853 13.18685403116907
ONEWEB-0397             
1 50477U 21132J   24094.81485597  .00000049  00000+0  91010-4 0  9995
2 50477  87.9156 135.5737 0002224  91.7461 268.3926 13.18686065115603
ONEWEB-0398             
1 50478U 21132K   24094.73809621 -.00000335  00000+0 -97966-3 0  9990
2 50478  87.9032 181.0572 0002290 114.2505 245.8862 13.11421753110173
ONEWEB-0399             
1 50479U 21132L   24094.79977905 -.00000513  00000+0 -14845-2 0  9990
2 50479  87.9031 181.0604 0001981  92.4877 267.6477 13.11416441110176
ONEWEB-0400             
1 50480U 21132M   24094.87017444  .00000040  00000+0  67710-4 0  9998
2 50480  87.9152 135.5688 0002074 103.3439 256.7924 13.18684775115601
ONEWEB-0401             
1 50481U 21132N   24094.60935048  .00000044  00000+0  79115-4 0  9995
2 50481  87.9151 135.6187 0001893  88.4665 271.6684 13.18685156115577
ONEWEB-0402             
1 50482U 21132P   24094.80220950  .00000030  00000+0  44402-4 0  9993
2 50482  87.9152 135.5775 0001481  88.3571 271.7730 13.18685116115624
ONEWEB-0403             
1 50483U 21132Q   24094.82591978  .00000090  00000+0  19641-3 0  9999
2 50483  87.9154 135.5791 0002169  89.5082 270.6298 13.18687182115586
ONEWEB-0404             
1 50484U 21132R   24094.93454664  .00000453  00000+0  12432-2 0  9995
2 50484  87.9038 181.0002 0002444  98.7389 261.4016 13.11414925110281
ONEWEB-0405             
1 50485U 21132S   24094.84173445 -.00000278  00000+0 -73723-3 0  9999
2 50485  87.9132 135.5653 0002339  81.8133 278.3265 13.18683143115988
ONEWEB-0406             
1 50486U 21132T   24094.60303306  .00000079  00000+0  16766-3 0  9996
2 50486  87.9157 135.6224 0002473  97.8806 262.2606 13.18685033115581
ONEWEB-0407             
1 50487U 21132U   24094.82434114  .00000115  00000+0  25815-3 0  9999
2 50487  87.9150 135.5839 0002025  90.3209 269.8156 13.18686298115558
ONEWEB-0409             
1 50488U 21132V   24094.93289964  .00000267  00000+0  71863-3 0  9995
2 50488  87.9029 181.0036 0002663 104.9984 255.1439 13.11416636110174
ONEWEB-0412             
1 50489U 21132W   24094.81326504  .00000065  00000+0  13232-3 0  9997
2 50489  87.9155 135.5819 0001916  79.9821 280.1527 13.18687864115642
ONEWEB-0413             
1 50490U 21132X   24094.81801090  .00000040  00000+0  69109-4 0  9995
2 50490  87.9156 135.5944 0001724  86.4328 273.7002 13.18685231115581
ONEWEB-0414             
1 50491U 21132Y   24094.80378846  .00000077  00000+0  16334-3 0  9994
2 50491  87.9151 135.5786 0002125  85.9395 274.1980 13.18685358115619
ONEWEB-0417             
1 50492U 21132Z   24094.81169391  .00000052  00000+0  10018-3 0  9995
2 50492  87.9158 135.5747 0002367  97.7345 262.4056 13.18685823115596
ONEWEB-0418             
1 50493U 21132AA  24094.82103039  .00000094  00000+0  20617-3 0  9996
2 50493  87.9155 135.5786 0002638  96.3346 263.8086 13.18684519115650
ONEWEB-0419             
1 50494U 21132AB  24094.83856243  .00000227  00000+0  54284-3 0  9995
2 50494  87.9147 135.5947 0002299 103.8359 256.3029 13.18684984115573
ONEWEB-0420             
1 50495U 21132AC  24094.80536341  .00000030  00000+0  44024-4 0  9991
2 50495  87.9152 135.6104 0001663  94.6504 265.4818 13.18687650115568
ONEWEB-0421             
1 50496U 21132AD  24094.87493139  .00000053  00000+0  10153-3 0  9996
2 50496  87.9158 135.5567 0002081  83.4116 276.7253 13.18686410115614
ONEWEB-0424             
1 50497U 21132AE  24094.83382484  .00000060  00000+0  11895-3 0  9995
2 50497  87.9154 135.5743 0002302 110.0617 250.0763 13.18684603115631
ONEWEB-0426             
1 50498U 21132AF  24094.87175663  .00000054  00000+0  10371-3 0  9990
2 50498  87.9150 135.5869 0002625  86.8844 273.2588 13.18684769115586
ONEWEB-0427             
1 50499U 21132AG  24094.83221633  .00001413  00000+0  35498-2 0  9992
2 50499  87.9152 135.5712 0002402  95.2829 264.8577 13.18696156115606
ONEWEB-0429             
1 50500U 21132AH  24094.81958638  .00000063  00000+0  12749-3 0  9990
2 50500  87.9158 135.5751 0002001  95.6374 264.4987 13.18684985115576
ONEWEB-0430             
1 50501U 21132AJ  24094.80852980  .00000021  00000+0  19381-4 0  9997
2 50501  87.9155 135.5847 0001951 110.5212 249.6130 13.18687075115614
ONEWEB-0432             
1 50502U 21132AK  24094.84014575  .00000046  00000+0  83353-4 0  9999
2 50502  87.9153 135.5720 0001962  98.9633 261.1721 13.18685640115577
ONEWEB-0440             
1 50503U 21132AL  24094.82749752  .00000053  00000+0  10136-3 0  9996
2 50503  87.9156 135.5609 0001803  79.1380 280.9955 13.18685113115563
ONEWEB-0450             
1 50504U 21132AM  24094.82131611  .00000060  00000+0  12024-3 0  9992
2 50504  87.9158 135.5905 0001703 100.4191 259.7133 13.18687157115597
ONEWEB-0410             
1 51622U 22012A   24094.90192656  .00000660  00000+0  16656-2 0  9997
2 51622  87.9233 165.8837 0003352  88.9697 271.1818 13.17648219107781
ONEWEB-0411             
1 51623U 22012B   24094.81592821  .00000477  00000+0  13307-2 0  9992
2 51623  87.8996 196.0883 0002068 119.1005 241.0330 13.10404730103947
ONEWEB-0415             
1 51624U 22012C   24094.81263541  .00000580  00000+0  16226-2 0  9995
2 51624  87.8992 196.1145 0002106 116.4266 243.7077 13.10424217103947
ONEWEB-0416             
1 51625U 22012D   24094.82412339  .00000101  00000+0  25396-3 0  9996
2 51625  87.8996 196.1027 0001944 104.5553 255.5790 13.10369812103983
ONEWEB-0422             
1 51626U 22012E   24094.91138200  .00000005  00000+0 -20621-4 0  9990
2 51626  87.9237 165.8799 0001267  99.7303 260.3972 13.17647353107894
ONEWEB-0423             
1 51627U 22012F   24094.75318699 -.00001271  00000+0 -33079-2 0  9991
2 51627  87.9238 165.9111 0002023  98.3901 261.7460 13.17653663107769
ONEWEB-0425             
1 51628U 22012G   24094.83396743 -.00000442  00000+0 -13019-2 0  9998
2 51628  87.8992 196.0869 0002058  93.3816 266.7547 13.10331749103981
ONEWEB-0428             
1 51629U 22012H   24094.81426473  .00000509  00000+0  14209-2 0  9995
2 51629  87.8998 196.1049 0001587 112.8488 247.2807 13.10412146103947
ONEWEB-0431             
1 51630U 22012J   24094.78372588 -.00000210  00000+0 -64030-3 0  9999
2 51630  87.8995 196.1131 0001897 129.2987 230.8309 13.10228371103993
ONEWEB-0434             
1 51631U 22012K   24094.83724859 -.00000540  00000+0 -15850-2 0  9999
2 51631  87.8995 196.1118 0001654 104.0977 256.0334 13.10318221103981
ONEWEB-0435             
1 51632U 22012L   24094.84545785 -.00000705  00000+0 -20577-2 0  9995
2 51632  87.8997 196.1007 0001442 109.4689 250.6594 13.10286783103979
ONEWEB-0436             
1 51633U 22012M   24094.89715878  .00000076  00000+0  16366-3 0  9994
2 51633  87.9234 165.8904 0001769 100.5321 259.6010 13.17649514107766
ONEWEB-0438             
1 51634U 22012N   24094.82904548 -.00000163  00000+0 -50239-3 0  9998
2 51634  87.8994 196.1047 0001950 100.0213 260.1134 13.10349719104006
ONEWEB-0439             
1 51635U 22012P   24094.83232787 -.00000334  00000+0 -99386-3 0  9995
2 51635  87.8996 196.0882 0001874 107.7745 252.3587 13.10336455103988
ONEWEB-0442             
1 51636U 22012Q   24094.88845206  .00000061  00000+0  12283-3 0  9993
2 51636  87.9238 165.9241 0002856 100.5752 259.5702 13.17650840107754
ONEWEB-0443             
1 51637U 22012R   24094.90822659  .00000034  00000+0  53738-4 0  9995
2 51637  87.9239 165.9269 0001645  90.3530 269.7790 13.17649420107809
ONEWEB-0444             
1 51638U 22012S   24094.82247286  .00000210  00000+0  56626-3 0  9998
2 51638  87.8990 196.1158 0001677 103.3834 256.7481 13.10379165103991
ONEWEB-0445             
1 51639U 22012T   24094.84381781 -.00000669  00000+0 -19555-2 0  9999
2 51639  87.8988 196.0870 0002250 108.2649 251.8723 13.10293177104001
ONEWEB-0446             
1 51640U 22012U   24094.82083493  .00000289  00000+0  79246-3 0  9998
2 51640  87.8995 196.1091 0002160 112.0091 248.1266 13.10385944103982
ONEWEB-0448             
1 51641U 22012V   24094.82574658  .00000036  00000+0  67070-4 0  9990
2 51641  87.8994 196.1092 0001724 101.8954 258.2367 13.10369560103959
ONEWEB-0449             
1 51642U 22012W   24094.83068758 -.00000270  00000+0 -81112-3 0  9995
2 51642  87.8990 196.1075 0002092  99.0197 261.1167 13.10343785103966
